STARLINK-37531          
1 69136U 26110N   26160.25003472 -.00724302  00000+0 -90165-2 0  9995
2 69136  97.2839 356.6542 0001227  90.2909 294.7903 15.62191984  4382
STARLINK-37662          
1 69137U 26110P   26160.25003472 -.02484406  00000+0 -43262-1 0  9991
2 69137  97.2852 356.6150 0001984 105.1329 187.2939 15.54613239  4383
STARLINK-37658          
1 69138U 26110Q   26160.25003472 -.00001477  00000+0 -25531-4 0  9995
2 69138  97.2853 356.5413 0000997 118.0722   7.1407 15.49152376  4383
STARLINK-37659          
1 69139U 26110R   26160.25003472 -.00010702  00000+0 -19541-3 0  9990
2 69139  97.2856 356.5222 0001517  90.6639 351.7152 15.49185194  4385
STARLINK-37653          
1 69140U 26110S   26160.25003472 -.00004121  00000+0 -74178-4 0  9998
2 69140  97.2856 356.5167 0001282  90.5046 338.1368 15.49179276  4387
STARLINK-37654          
1 69141U 26110T   26160.25003472 -.02738162  00000+0 -48475-1 0  9998
2 69141  97.2844 356.6146 0001597  97.8094 206.6986 15.53906054  4387
STARLINK-37655          
1 69142U 26110U   26160.25003472 -.01935948  00000+0 -26462-1 0  9991
2 69142  97.2843 356.6450 0001435 108.1581 259.2517 15.60711405  4389
STARLINK-37636          
1 69143U 26110V   26160.25003472 -.02622981  00000+0 -29401-1 0  9999
2 69143  97.2849 356.6970 0002048  83.0404  50.5487 15.66242769  4385
STARLINK-37638          
1 69144U 26110W   26160.25003472 -.02649298  00000+0 -29179-1 0  9992
2 69144  97.2851 356.7010 0002157  87.1002  55.9133 15.66713844  4389
STARLINK-37657          
1 69145U 26110X   26160.25003472 -.01921358  00000+0 -35957-1 0  9993
2 69145  97.2850 356.6201 0001764  96.0415 209.6023 15.52266705  4436
STARLINK-37639          
1 69146U 26110Y   26160.25003472 -.02614295  00000+0 -28061-1 0  9992
2 69146  97.2850 356.7067 0002150  86.7358  68.6795 15.67294549  4432
STARLINK-37661          
1 69147U 26110Z   26160.25003472  .00002522  00000+0  48040-4 0  9995
2 69147  97.2858 356.5663 0001923  63.7555 126.8473 15.49171461  4439
STARLINK-37395          
1 69148U 26111A   26160.30476850  .00204226  00000+0  10110-2 0  9997
2 69148  53.1584 191.1649 0000714  74.0666 286.0436 15.80937072  3013
STARLINK-37346          
1 69149U 26111B   26159.79798346  .00131475  00000+0  66053-3 0  9999
2 69149  53.1585 193.6931 0000916  41.1598 318.9494 15.80841008  2931
STARLINK-37332          
1 69150U 26111C   26160.25003472 -.02567823  00000+0 -21301-1 0  9992
2 69150  53.1594 191.4540 0000918  78.5294 322.2449 15.72842121  4279
STARLINK-37297          
1 69151U 26111D   26160.30350700  .00179539  00000+0  89176-3 0  9993
2 69151  53.1586 191.1568 0000698  54.7494 305.3594 15.80936734  3018
STARLINK-37317          
1 69152U 26111E   26160.30154265  .00346386  00000+0  16895-2 0  9995
2 69152  53.1581 191.1431 0000395 267.9792  92.1185 15.80865500  3015
STARLINK-37374          
1 69153U 26111F   26160.25003472 -.02532804  00000+0 -25833-1 0  9990
2 69153  53.1598 191.4974 0000720  79.3179 299.9997 15.67906573  4273
STARLINK-37235          
1 69154U 26111G   26160.25003472 -.00771020  00000+0 -98530-2 0  9999
2 69154  53.1600 191.6511 0000850  76.7118 227.1937 15.61135597  4276
STARLINK-37329          
1 69155U 26111H   26160.30200201  .00334175  00000+0  16243-2 0  9990
2 69155  53.1589 191.1453 0002842   7.9332 352.1735 15.80975100  3019
STARLINK-37345          
1 69156U 26111J   26160.30054701  .00140993  00000+0  70463-3 0  9991
2 69156  53.1587 191.1367 0001352 140.6877 219.4244 15.80923362  3019
STARLINK-37353          
1 69157U 26111K   26160.30033066  .00160948  00000+0  80186-3 0  9998
2 69157  53.1585 191.1347 0001630 149.4217 210.6901 15.80926948  3016
STARLINK-37363          
1 69158U 26111L   26160.29813134  .02001975  00000+0  83303-2 0  9998
2 69158  53.1583 191.1200 0004037 225.5728 134.4965 15.82046001  3018
STARLINK-37343          
1 69159U 26111M   26160.25003472 -.02517793  00000+0 -26678-1 0  9994
2 69159  53.1599 191.4940 0000735  69.4257 311.2862 15.66957960  4270
STARLINK-37328          
1 69160U 26111N   26160.17169367  .00178753  00000+0  88836-3 0  9994
2 69160  53.1585 191.7526 0001401  66.5621 293.5549 15.80926752  2996
STARLINK-37311          
1 69161U 26111P   26160.25003472 -.00080804  00000+0 -46512-3 0  9994
2 69161  53.1593 191.4035 0000894  98.1424 327.3234 15.78093550  4273
STARLINK-36286          
1 69162U 26111Q   26160.25003472 -.00061551  00000+0 -35281-3 0  9994
2 69162  53.1591 191.3931 0000895  70.6358 359.7625 15.78078965  4274
STARLINK-37196          
1 69163U 26111R   26160.30373297  .00157329  00000+0  89162-3 0  9990
2 69163  53.1590 191.1562 0000766  79.7782 280.3326 15.78098334  3010
STARLINK-36288          
1 69164U 26111S   26160.30291983  .00127743  00000+0  72723-3 0  9994
2 69164  53.1588 191.1500 0001490 142.8387 217.2738 15.78096666  3010
STARLINK-37445          
1 69165U 26111T   26160.25003472 -.00081320  00000+0 -46819-3 0  9992
2 69165  53.1591 191.3782 0001065  91.8000 345.5206 15.78091258  4278
