OBJECT_NAME,OBJECT_ID,EPOCH,MEAN_MOTION,ECCENTRICITY,INCLINATION,RA_OF_ASC_NODE,ARG_OF_PERICENTER,MEAN_ANOMALY,EPHEMERIS_TYPE,CLASSIFICATION_TYPE,NORAD_CAT_ID,ELEMENT_SET_NO,REV_AT_EPOCH,BSTAR,MEAN_MOTION_DOT,MEAN_MOTION_DDOT
STARLINK-37531,2026-110N,2026-06-09T06:00:02.999808,15.62191984,.0001227,97.2839,356.6542,90.2909,294.7903,0,U,69136,999,438,-.90165017E-2,-.724302E-2,0
STARLINK-37662,2026-110P,2026-06-09T06:00:02.999808,15.54613239,.00019846,97.2852,356.6150,105.1329,187.2939,0,U,69137,999,438,-.43262032E-1,-.2484406E-1,0
STARLINK-37658,2026-110Q,2026-06-09T06:00:02.999808,15.49152376,.00009974,97.2853,356.5413,118.0722,7.1407,0,U,69138,999,438,-.25530776E-4,-.1477E-4,0
STARLINK-37659,2026-110R,2026-06-09T06:00:02.999808,15.49185194,.00015173,97.2856,356.5222,90.6639,351.7152,0,U,69139,999,438,-.19540557E-3,-.10702E-3,0
STARLINK-37653,2026-110S,2026-06-09T06:00:02.999808,15.49179276,.00012826,97.2856,356.5167,90.5046,338.1368,0,U,69140,999,438,-.74177848E-4,-.4121E-4,0
STARLINK-37654,2026-110T,2026-06-09T06:00:02.999808,15.53906054,.0001597,97.2844,356.6146,97.8094,206.6986,0,U,69141,999,438,-.48475148E-1,-.2738162E-1,0
STARLINK-37655,2026-110U,2026-06-09T06:00:02.999808,15.60711405,.00014355,97.2843,356.6450,108.1581,259.2517,0,U,69142,999,438,-.26462271E-1,-.1935948E-1,0
STARLINK-37636,2026-110V,2026-06-09T06:00:02.999808,15.66242769,.0002048,97.2849,356.6970,83.0404,50.5487,0,U,69143,999,438,-.29401474E-1,-.2622981E-1,0
STARLINK-37638,2026-110W,2026-06-09T06:00:02.999808,15.66713844,.00021579,97.2851,356.7010,87.1002,55.9133,0,U,69144,999,438,-.29178971E-1,-.2649298E-1,0
STARLINK-37657,2026-110X,2026-06-09T06:00:02.999808,15.52266705,.00017641,97.2850,356.6201,96.0415,209.6023,0,U,69145,999,443,-.35956988E-1,-.1921358E-1,0
STARLINK-37639,2026-110Y,2026-06-09T06:00:02.999808,15.67294549,.00021504,97.2850,356.7067,86.7358,68.6795,0,U,69146,999,443,-.28060696E-1,-.2614295E-1,0
STARLINK-37661,2026-110Z,2026-06-09T06:00:02.999808,15.49171461,.00019231,97.2858,356.5663,63.7555,126.8473,0,U,69147,999,443,.48040249E-4,.2522E-4,0
STARLINK-37395,2026-111A,2026-06-09T07:18:51.998400,15.80937072,.00007147,53.1584,191.1649,74.0666,286.0436,0,U,69148,999,301,.10109672E-2,.204226E-2,0
STARLINK-37346,2026-111B,2026-06-08T19:09:05.770944,15.80841008,.00009163,53.1585,193.6931,41.1598,318.9494,0,U,69149,999,293,.66052833E-3,.131475E-2,0
STARLINK-37332,2026-111C,2026-06-09T06:00:02.999808,15.72842121,.00009188,53.1594,191.4540,78.5294,322.2449,0,U,69150,999,427,-.21300987E-1,-.2567823E-1,0
STARLINK-37297,2026-111D,2026-06-09T07:17:03.004800,15.80936734,.00006988,53.1586,191.1568,54.7494,305.3594,0,U,69151,999,301,.89175965E-3,.179539E-2,0
STARLINK-37317,2026-111E,2026-06-09T07:14:13.284960,15.80865500,.00003952,53.1581,191.1431,267.9792,92.1185,0,U,69152,999,301,.16895052E-2,.346386E-2,0
STARLINK-37374,2026-111F,2026-06-09T06:00:02.999808,15.67906573,.00007205,53.1598,191.4974,79.3179,299.9997,0,U,69153,999,427,-.25832797E-1,-.2532804E-1,0
STARLINK-37235,2026-111G,2026-06-09T06:00:02.999808,15.61135597,.00008504,53.1600,191.6511,76.7118,227.1937,0,U,69154,999,427,-.98530172E-2,-.77102E-2,0
STARLINK-37329,2026-111H,2026-06-09T07:14:52.973664,15.80975100,.0002842,53.1589,191.1453,7.9332,352.1735,0,U,69155,999,301,.16242592E-2,.334175E-2,0
STARLINK-37345,2026-111J,2026-06-09T07:12:47.261664,15.80923362,.00013522,53.1587,191.1367,140.6877,219.4244,0,U,69156,999,301,.70463444E-3,.140993E-2,0
STARLINK-37353,2026-111K,2026-06-09T07:12:28.569024,15.80926948,.000163,53.1585,191.1347,149.4217,210.6901,0,U,69157,999,301,.80186406E-3,.160948E-2,0
STARLINK-37363,2026-111L,2026-06-09T07:09:18.547776,15.82046001,.00040378,53.1583,191.1200,225.5728,134.4965,0,U,69158,999,301,.83303256E-2,.2001975E-1,0
STARLINK-37343,2026-111M,2026-06-09T06:00:02.999808,15.66957960,.0000735,53.1599,191.4940,69.4257,311.2862,0,U,69159,999,427,-.2667815E-1,-.2517793E-1,0
STARLINK-37328,2026-111N,2026-06-09T04:07:14.333088,15.80926752,.00014015,53.1585,191.7526,66.5621,293.5549,0,U,69160,999,299,.88835989E-3,.178753E-2,0
STARLINK-37311,2026-111P,2026-06-09T06:00:02.999808,15.78093550,.00008946,53.1593,191.4035,98.1424,327.3234,0,U,69161,999,427,-.46512478E-3,-.80804E-3,0
STARLINK-36286,2026-111Q,2026-06-09T06:00:02.999808,15.78078965,.00008956,53.1591,191.3931,70.6358,359.7625,0,U,69162,999,427,-.3528141E-3,-.61551E-3,0
STARLINK-37196,2026-111R,2026-06-09T07:17:22.528608,15.78098334,.00007662,53.1590,191.1562,79.7782,280.3326,0,U,69163,999,301,.89162017E-3,.157329E-2,0
STARLINK-36288,2026-111S,2026-06-09T07:16:12.273312,15.78096666,.00014907,53.1588,191.1500,142.8387,217.2738,0,U,69164,999,301,.72723152E-3,.127743E-2,0
STARLINK-37445,2026-111T,2026-06-09T06:00:02.999808,15.78091258,.00010657,53.1591,191.3782,91.8000,345.5206,0,U,69165,999,427,-.4681856E-3,-.8132E-3,0
